{
    "links": {
        "self": "http://www.neowsapp.com/rest/v1/neo/3557826?api_key=iIulBulltgU6a56xZRHN4H3l9WmuAYTsLGpBGhQ2"
    },
    "id": "3557826",
    "neo_reference_id": "3557826",
    "name": "(2011 DP)",
    "designation": "2011 DP",
    "nasa_jpl_url": "http://ssd.jpl.nasa.gov/sbdb.cgi?sstr=3557826",
    "absolute_magnitude_h": 22.4,
    "estimated_diameter": {
        "kilometers": {
            "estimated_diameter_min": 0.0880146521,
            "estimated_diameter_max": 0.1968067451
        },
        "meters": {
            "estimated_diameter_min": 88.0146520901,
            "estimated_diameter_max": 196.8067450894
        },
        "miles": {
            "estimated_diameter_min": 0.0546897524,
            "estimated_diameter_max": 0.122290004
        },
        "feet": {
            "estimated_diameter_min": 288.7619911632,
            "estimated_diameter_max": 645.6914415591
        }
    },
    "is_potentially_hazardous_asteroid": false,
    "close_approach_data": [
        {
            "close_approach_date": "2011-02-14",
            "close_approach_date_full": "2011-Feb-14 16:10",
            "epoch_date_close_approach": 1297699800000,
            "relative_velocity": {
                "kilometers_per_second": "17.4537871",
                "kilometers_per_hour": "62833.6335599748",
                "miles_per_hour": "39042.3763639743"
            },
            "miss_distance": {
                "astronomical": "0.1987418465",
                "lunar": "77.3105782885",
                "kilometers": "29731356.916266955",
                "miles": "18474208.527335779"
            },
            "orbiting_body": "Earth"
        }
    ],
    "orbital_data": {
        "orbit_id": "5",
        "orbit_determination_date": "2017-04-06 08:54:24",
        "first_observation_date": "2011-02-23",
        "last_observation_date": "2011-02-23",
        "data_arc_in_days": null,
        "observations_used": 9,
        "orbit_uncertainty": "9",
        "minimum_orbit_intersection": ".121406",
        "jupiter_tisserand_invariant": "6.989",
        "epoch_osculation": "2455616.5",
        "eccentricity": ".6134446555706381",
        "semi_major_axis": ".8090778164565587",
        "inclination": "26.4992460773638",
        "ascending_node_longitude": "153.1361445556208",
        "orbital_period": "265.8176825645463",
        "perihelion_distance": ".3127533540105211",
        "perihelion_argument": "198.9694502432644",
        "aphelion_distance": "1.305402278902596",
        "perihelion_time": "2455524.997952582910",
        "mean_anomaly": "123.922294229443",
        "mean_motion": "1.354311709163984",
        "equinox": "J2000",
        "orbit_class": {
            "orbit_class_type": "ATE",
            "orbit_class_description": "Near-Earth asteroid orbits similar to that of 2062 Aten",
            "orbit_class_range": "a (semi-major axis) < 1.0 AU; q (perihelion) > 0.983 AU"
        }
    },
    "is_sentry_object": false
}